{"type":"FeatureCollection","features":[{"type":"Feature","properties":{"gitter_id":"bodyinforma2_1"},"geometry":{"type":"Polygon", "coordinates":[[[8.20013,52.939134], [8.185261,52.938911], [8.170392,52.938686], [8.17077,52.929702], [8.155904,52.929475], [8.156284,52.920492], [8.156664,52.911509], [8.157044,52.902526], [8.142188,52.902297], [8.14257,52.893314], [8.127717,52.893084], [8.128103,52.884101], [8.113253,52.883868], [8.098403,52.883634], [8.098794,52.874651], [8.083947,52.874415], [8.084342,52.865433], [8.084736,52.85645], [8.069895,52.856212], [8.055055,52.855972], [8.040215,52.855731], [8.025375,52.855488], [8.010535,52.855243], [7.995695,52.854996], [7.980855,52.854747], [7.966016,52.854497], [7.965597,52.863479], [7.950755,52.863227], [7.935913,52.862972], [7.935488,52.871955], [7.935063,52.880937], [7.934637,52.889919], [7.949489,52.890174], [7.949066,52.899156], [7.948644,52.908138], [7.933786,52.907884], [7.93336,52.916866], [7.9185,52.916609], [7.918929,52.907627], [7.904072,52.907369], [7.889215,52.907109], [7.874358,52.906847], [7.87392,52.915829], [7.85906,52.915565], [7.858618,52.924547], [7.858177,52.933529], [7.843311,52.933263], [7.842866,52.942245], [7.842421,52.951227], [7.841975,52.960208], [7.85685,52.960474], [7.871725,52.960738], [7.8866,52.961001], [7.886164,52.969983], [7.871286,52.96972], [7.870846,52.978702], [7.855965,52.978438], [7.855522,52.98742], [7.855078,52.996402], [7.869966,52.996666], [7.869525,53.005648], [7.884416,53.00591], [7.883978,53.014892], [7.88354,53.023874], [7.898437,53.024135], [7.898002,53.033117], [7.912902,53.033376], [7.91247,53.042358], [7.927373,53.042616], [7.942277,53.042871], [7.941851,53.051853], [7.956757,53.052107], [7.971664,53.052359], [7.972084,53.043377], [7.986988,53.043626], [7.987405,53.034644], [7.987822,53.025662], [8.00272,53.02591], [8.002306,53.034892], [8.001893,53.043875], [8.001479,53.052857], [8.016386,53.053103], [8.016797,53.044121], [8.031701,53.044365], [8.031294,53.053348], [8.046201,53.05359], [8.046606,53.044608], [8.061511,53.044849], [8.076416,53.045087], [8.091321,53.045324], [8.106226,53.04556], [8.106618,53.036577], [8.12152,53.03681], [8.121909,53.027827], [8.136808,53.028059], [8.151708,53.028288], [8.15209,53.019305], [8.166987,53.019533], [8.167366,53.01055], [8.167745,53.001567], [8.182635,53.001793], [8.183011,52.99281], [8.183387,52.983826], [8.168502,52.983601], [8.168881,52.974618], [8.169259,52.965635], [8.184137,52.96586], [8.184512,52.956877], [8.199387,52.957101], [8.199759,52.948118], [8.20013,52.939134]], [[8.110528,52.946749], [8.110137,52.955732], [8.109747,52.964714], [8.109357,52.973697], [8.094476,52.973462], [8.094082,52.982445], [8.108966,52.98268], [8.108575,52.991663], [8.093688,52.991428], [8.093294,53.000411], [8.078405,53.000174], [8.078007,53.009157], [8.063115,53.008918], [8.048222,53.008678], [8.03333,53.008435], [8.018438,53.008191], [8.003546,53.007945], [7.988654,53.007697], [7.973762,53.007447], [7.974181,52.998465], [7.959293,52.998214], [7.944404,52.99796], [7.944829,52.988978], [7.945254,52.979996], [7.945678,52.971014], [7.9308,52.970759], [7.931227,52.961777], [7.931654,52.952794], [7.932081,52.943812], [7.932507,52.93483], [7.932934,52.925848], [7.947797,52.926103], [7.948221,52.91712], [7.963081,52.917373], [7.963501,52.908391], [7.978359,52.908642], [7.978776,52.899659], [7.99363,52.899908], [7.993217,52.908891], [8.008075,52.909138], [8.022933,52.909383], [8.037792,52.909627], [8.05265,52.909869], [8.067509,52.910109], [8.06711,52.919091], [8.081972,52.919329], [8.081577,52.928312], [8.096442,52.928548], [8.096049,52.937531], [8.095656,52.946514], [8.110528,52.946749]]]}},{"type":"Feature","properties":{"gitter_id":"bodyinforma2_0"},"geometry":{"type":"Polygon", "coordinates":[[[8.110528,52.946749], [8.095656,52.946514], [8.096049,52.937531], [8.096442,52.928548], [8.081577,52.928312], [8.081972,52.919329], [8.06711,52.919091], [8.067509,52.910109], [8.05265,52.909869], [8.037792,52.909627], [8.022933,52.909383], [8.008075,52.909138], [7.993217,52.908891], [7.99363,52.899908], [7.978776,52.899659], [7.978359,52.908642], [7.963501,52.908391], [7.963081,52.917373], [7.948221,52.91712], [7.947797,52.926103], [7.932934,52.925848], [7.932507,52.93483], [7.932081,52.943812], [7.931654,52.952794], [7.931227,52.961777], [7.9308,52.970759], [7.945678,52.971014], [7.945254,52.979996], [7.944829,52.988978], [7.944404,52.99796], [7.959293,52.998214], [7.974181,52.998465], [7.973762,53.007447], [7.988654,53.007697], [8.003546,53.007945], [8.018438,53.008191], [8.03333,53.008435], [8.048222,53.008678], [8.063115,53.008918], [8.078007,53.009157], [8.078405,53.000174], [8.093294,53.000411], [8.093688,52.991428], [8.108575,52.991663], [8.108966,52.98268], [8.094082,52.982445], [8.094476,52.973462], [8.109357,52.973697], [8.109747,52.964714], [8.110137,52.955732], [8.110528,52.946749]]]}}]}