{"type":"FeatureCollection","features":[{"type":"Feature","properties":{"gitter_id":"Weber, Michael1_1"},"geometry":{"type":"MultiPolygon", "coordinates":[[[[7.234487,53.613167], [7.219389,53.612824], [7.204291,53.612478], [7.204881,53.6035], [7.189786,53.603152], [7.190379,53.594174], [7.190971,53.585196], [7.191563,53.576218], [7.176479,53.575869], [7.161394,53.575518], [7.14631,53.575165], [7.145708,53.584143], [7.145106,53.593121], [7.144504,53.602099], [7.159598,53.602452], [7.158999,53.61143], [7.174096,53.611781], [7.173499,53.620759], [7.1886,53.621109], [7.203701,53.621456], [7.218802,53.621802], [7.233904,53.622146], [7.234487,53.613167]]], [[[7.313383,53.560984], [7.298302,53.56065], [7.298871,53.551671], [7.29944,53.542693], [7.284366,53.542357], [7.284938,53.533378], [7.285509,53.524399], [7.270442,53.524062], [7.255375,53.523723], [7.254797,53.532702], [7.239727,53.532361], [7.224658,53.532018], [7.225242,53.523039], [7.210175,53.522695], [7.210762,53.513716], [7.195699,53.51337], [7.180636,53.513021], [7.180043,53.521999], [7.17945,53.530978], [7.164381,53.530627], [7.149313,53.530275], [7.148713,53.539253], [7.148112,53.548231], [7.163187,53.548584], [7.16259,53.557562], [7.177668,53.557912], [7.177073,53.56689], [7.192155,53.567239], [7.207237,53.567586], [7.207825,53.558608], [7.192747,53.558261], [7.193338,53.549283], [7.193928,53.540305], [7.209001,53.540651], [7.224073,53.540996], [7.223489,53.549975], [7.222904,53.558953], [7.237983,53.559296], [7.253063,53.559638], [7.252484,53.568616], [7.251905,53.577595], [7.251326,53.586573], [7.250746,53.595552], [7.250166,53.60453], [7.265262,53.60487], [7.264684,53.613849], [7.279783,53.614187], [7.294882,53.614523], [7.295453,53.605544], [7.296024,53.596566], [7.296594,53.587587], [7.297164,53.578608], [7.297733,53.569629], [7.312817,53.569963], [7.313383,53.560984]]]]}},{"type":"Feature","properties":{"gitter_id":"Weber, Michael1_0"},"geometry":{"type":"Polygon", "coordinates":[[[7.265262,53.60487], [7.250166,53.60453], [7.250746,53.595552], [7.251326,53.586573], [7.251905,53.577595], [7.252484,53.568616], [7.253063,53.559638], [7.237983,53.559296], [7.222904,53.558953], [7.223489,53.549975], [7.224073,53.540996], [7.209001,53.540651], [7.193928,53.540305], [7.193338,53.549283], [7.192747,53.558261], [7.207825,53.558608], [7.207237,53.567586], [7.192155,53.567239], [7.191563,53.576218], [7.190971,53.585196], [7.190379,53.594174], [7.189786,53.603152], [7.204881,53.6035], [7.204291,53.612478], [7.219389,53.612824], [7.234487,53.613167], [7.249586,53.613509], [7.264684,53.613849], [7.265262,53.60487]]]}}]}