{"type":"FeatureCollection","features":[{"type":"Feature","properties":{"gitter_id":"Lang, Matthias1_1"},"geometry":{"type":"Polygon", "coordinates":[[[7.575905,53.45861], [7.560859,53.458309], [7.561371,53.449329], [7.546329,53.449026], [7.531286,53.448721], [7.531804,53.439741], [7.532322,53.430761], [7.517286,53.430454], [7.502251,53.430146], [7.502774,53.421166], [7.487742,53.420856], [7.488269,53.411876], [7.47324,53.411564], [7.473769,53.402584], [7.458744,53.40227], [7.443718,53.401955], [7.443182,53.410934], [7.442646,53.419914], [7.427615,53.419596], [7.412584,53.419277], [7.397553,53.418955], [7.382522,53.418632], [7.367491,53.418307], [7.366939,53.427286], [7.366387,53.436265], [7.365834,53.445245], [7.380874,53.44557], [7.380325,53.454549], [7.379775,53.463529], [7.379224,53.472508], [7.364175,53.472182], [7.363621,53.481162], [7.363067,53.490141], [7.378123,53.490467], [7.393179,53.49079], [7.408235,53.491113], [7.40769,53.500092], [7.42275,53.500412], [7.422208,53.509392], [7.437271,53.50971], [7.436732,53.51869], [7.451798,53.519006], [7.466865,53.519321], [7.466332,53.528301], [7.481402,53.528614], [7.496472,53.528925], [7.496999,53.519945], [7.497525,53.510965], [7.498051,53.501985], [7.513112,53.502294], [7.513635,53.493314], [7.528693,53.493622], [7.543751,53.493927], [7.558809,53.49423], [7.559322,53.48525], [7.559835,53.47627], [7.560347,53.467289], [7.575396,53.467591], [7.575905,53.45861]], [[7.500678,53.457086], [7.500153,53.466066], [7.499628,53.475046], [7.499103,53.484026], [7.484048,53.483715], [7.468994,53.483402], [7.468462,53.492382], [7.453405,53.492067], [7.438348,53.491751], [7.438887,53.482771], [7.423833,53.482453], [7.40878,53.482133], [7.409324,53.473154], [7.409868,53.464174], [7.410412,53.455195], [7.425455,53.455514], [7.425996,53.446535], [7.441037,53.446853], [7.456078,53.447169], [7.471119,53.447483], [7.486161,53.447795], [7.485633,53.456775], [7.500678,53.457086]]]}},{"type":"Feature","properties":{"gitter_id":"Lang, Matthias1_0"},"geometry":{"type":"Polygon", "coordinates":[[[7.500678,53.457086], [7.485633,53.456775], [7.486161,53.447795], [7.471119,53.447483], [7.456078,53.447169], [7.441037,53.446853], [7.425996,53.446535], [7.425455,53.455514], [7.410412,53.455195], [7.409868,53.464174], [7.409324,53.473154], [7.40878,53.482133], [7.423833,53.482453], [7.438887,53.482771], [7.438348,53.491751], [7.453405,53.492067], [7.468462,53.492382], [7.468994,53.483402], [7.484048,53.483715], [7.499103,53.484026], [7.499628,53.475046], [7.500153,53.466066], [7.500678,53.457086]]]}}]}