{"type":"FeatureCollection","features":[{"type":"Feature","properties":{"gitter_id":"bodyinforma1_1"},"geometry":{"type":"MultiPolygon", "coordinates":[[[[7.159598,53.602452], [7.144504,53.602099], [7.143902,53.611077], [7.143299,53.620055], [7.158399,53.620408], [7.158999,53.61143], [7.159598,53.602452]]], [[[7.296024,53.596566], [7.280931,53.59623], [7.265838,53.595892], [7.266415,53.586913], [7.266991,53.577934], [7.282077,53.578272], [7.28265,53.569293], [7.283222,53.560315], [7.268142,53.559977], [7.268718,53.550998], [7.269293,53.54202], [7.254219,53.54168], [7.239146,53.541339], [7.224073,53.540996], [7.224658,53.532018], [7.209588,53.531673], [7.194519,53.531326], [7.193928,53.540305], [7.178856,53.539956], [7.163784,53.539605], [7.148713,53.539253], [7.133641,53.538899], [7.133038,53.547877], [7.117963,53.547521], [7.117356,53.556498], [7.102279,53.55614], [7.101669,53.565118], [7.086588,53.564758], [7.085974,53.573736], [7.08536,53.582713], [7.100447,53.583074], [7.099835,53.592051], [7.114925,53.59241], [7.114317,53.601388], [7.12941,53.601744], [7.130016,53.592766], [7.145106,53.593121], [7.145708,53.584143], [7.130621,53.583789], [7.131225,53.574811], [7.13183,53.565833], [7.146911,53.566187], [7.14631,53.575165], [7.161394,53.575518], [7.176479,53.575869], [7.191563,53.576218], [7.206648,53.576565], [7.221734,53.57691], [7.236819,53.577253], [7.236237,53.586232], [7.235654,53.59521], [7.250746,53.595552], [7.250166,53.60453], [7.235071,53.604189], [7.234487,53.613167], [7.219389,53.612824], [7.204291,53.612478], [7.203701,53.621456], [7.1886,53.621109], [7.173499,53.620759], [7.158399,53.620408], [7.157799,53.629386], [7.172903,53.629738], [7.172306,53.638716], [7.187413,53.639065], [7.186819,53.648044], [7.201929,53.648391], [7.21704,53.648737], [7.232151,53.649081], [7.231566,53.65806], [7.24668,53.658402], [7.247262,53.649423], [7.247843,53.640445], [7.248424,53.631466], [7.23332,53.631124], [7.233904,53.622146], [7.249005,53.622488], [7.249586,53.613509], [7.264684,53.613849], [7.279783,53.614187], [7.294882,53.614523], [7.295453,53.605544], [7.296024,53.596566]]]]}},{"type":"Feature","properties":{"gitter_id":"bodyinforma1_0"},"geometry":{"type":"Polygon", "coordinates":[[[7.250746,53.595552], [7.235654,53.59521], [7.236237,53.586232], [7.236819,53.577253], [7.221734,53.57691], [7.206648,53.576565], [7.191563,53.576218], [7.176479,53.575869], [7.161394,53.575518], [7.14631,53.575165], [7.146911,53.566187], [7.13183,53.565833], [7.131225,53.574811], [7.130621,53.583789], [7.145708,53.584143], [7.145106,53.593121], [7.130016,53.592766], [7.12941,53.601744], [7.144504,53.602099], [7.159598,53.602452], [7.158999,53.61143], [7.158399,53.620408], [7.173499,53.620759], [7.1886,53.621109], [7.203701,53.621456], [7.204291,53.612478], [7.219389,53.612824], [7.234487,53.613167], [7.235071,53.604189], [7.250166,53.60453], [7.250746,53.595552]]]}}]}