{"type":"FeatureCollection","features":[{"type":"Feature","properties":{"gitter_id":"Test1_1"},"geometry":{"type":"Polygon", "coordinates":[[[7.386033,53.607522], [7.370936,53.607197], [7.371491,53.598218], [7.372045,53.589239], [7.372599,53.580259], [7.373152,53.57128], [7.373706,53.562301], [7.374259,53.553322], [7.374812,53.544342], [7.359737,53.544016], [7.344662,53.543688], [7.345221,53.534709], [7.34578,53.52573], [7.346338,53.516751], [7.331273,53.516421], [7.331834,53.507442], [7.316773,53.50711], [7.317337,53.498131], [7.317901,53.489152], [7.302846,53.488819], [7.287791,53.488484], [7.272736,53.488147], [7.272163,53.497126], [7.257106,53.496787], [7.257682,53.487808], [7.242628,53.487468], [7.242049,53.496446], [7.226991,53.496104], [7.227574,53.487125], [7.212521,53.486781], [7.197467,53.486435], [7.198056,53.477456], [7.183006,53.477108], [7.182414,53.486087], [7.181822,53.495065], [7.166766,53.494715], [7.16617,53.503693], [7.165574,53.512671], [7.150512,53.512319], [7.13545,53.511965], [7.120388,53.511609], [7.119782,53.520587], [7.119176,53.529565], [7.134244,53.529921], [7.133641,53.538899], [7.133038,53.547877], [7.117963,53.547521], [7.117356,53.556498], [7.102279,53.55614], [7.101669,53.565118], [7.086588,53.564758], [7.085974,53.573736], [7.08536,53.582713], [7.100447,53.583074], [7.099835,53.592051], [7.114925,53.59241], [7.114317,53.601388], [7.12941,53.601744], [7.144504,53.602099], [7.145106,53.593121], [7.145708,53.584143], [7.130621,53.583789], [7.131225,53.574811], [7.14631,53.575165], [7.146911,53.566187], [7.161992,53.56654], [7.177073,53.56689], [7.177668,53.557912], [7.178262,53.548934], [7.178856,53.539956], [7.193928,53.540305], [7.194519,53.531326], [7.209588,53.531673], [7.224658,53.532018], [7.224073,53.540996], [7.223489,53.549975], [7.238565,53.550318], [7.239146,53.541339], [7.239727,53.532361], [7.254797,53.532702], [7.269867,53.533041], [7.269293,53.54202], [7.284366,53.542357], [7.283794,53.551336], [7.298871,53.551671], [7.298302,53.56065], [7.297733,53.569629], [7.297164,53.578608], [7.296594,53.587587], [7.296024,53.596566], [7.295453,53.605544], [7.294882,53.614523], [7.279783,53.614187], [7.264684,53.613849], [7.249586,53.613509], [7.249005,53.622488], [7.248424,53.631466], [7.23332,53.631124], [7.218215,53.63078], [7.203111,53.630435], [7.188007,53.630087], [7.172903,53.629738], [7.172306,53.638716], [7.187413,53.639065], [7.186819,53.648044], [7.201929,53.648391], [7.21704,53.648737], [7.216452,53.657716], [7.231566,53.65806], [7.230981,53.667038], [7.246098,53.66738], [7.24668,53.658402], [7.261795,53.658742], [7.27691,53.659081], [7.276334,53.668059], [7.291452,53.668396], [7.292025,53.659417], [7.30714,53.659752], [7.307709,53.650773], [7.322821,53.651106], [7.337934,53.651437], [7.338496,53.642458], [7.339058,53.633479], [7.33962,53.6245], [7.354723,53.624828], [7.369826,53.625155], [7.370381,53.616176], [7.385482,53.616501], [7.386033,53.607522]]]}},{"type":"Feature","properties":{"gitter_id":"Test1_0"},"geometry":{"type":"Polygon", "coordinates":[[[7.298871,53.551671], [7.283794,53.551336], [7.284366,53.542357], [7.269293,53.54202], [7.269867,53.533041], [7.254797,53.532702], [7.239727,53.532361], [7.239146,53.541339], [7.238565,53.550318], [7.223489,53.549975], [7.224073,53.540996], [7.224658,53.532018], [7.209588,53.531673], [7.194519,53.531326], [7.193928,53.540305], [7.178856,53.539956], [7.178262,53.548934], [7.177668,53.557912], [7.177073,53.56689], [7.161992,53.56654], [7.146911,53.566187], [7.14631,53.575165], [7.131225,53.574811], [7.130621,53.583789], [7.145708,53.584143], [7.145106,53.593121], [7.144504,53.602099], [7.143902,53.611077], [7.143299,53.620055], [7.158399,53.620408], [7.157799,53.629386], [7.172903,53.629738], [7.188007,53.630087], [7.203111,53.630435], [7.218215,53.63078], [7.23332,53.631124], [7.248424,53.631466], [7.249005,53.622488], [7.249586,53.613509], [7.264684,53.613849], [7.279783,53.614187], [7.294882,53.614523], [7.295453,53.605544], [7.296024,53.596566], [7.296594,53.587587], [7.297164,53.578608], [7.297733,53.569629], [7.298302,53.56065], [7.298871,53.551671]]]}}]}