{"type":"FeatureCollection","features":[{"type":"Feature","properties":{"gitter_id":"Test_Land_Süden1_1"},"geometry":{"type":"Polygon", "coordinates":[[[9.904385,48.988152], [9.890726,48.988139], [9.890746,48.979145], [9.890765,48.97015], [9.890785,48.961155], [9.890805,48.952161], [9.890825,48.943166], [9.890845,48.934171], [9.8772,48.934157], [9.877223,48.925162], [9.863581,48.925146], [9.849939,48.925129], [9.836297,48.92511], [9.836327,48.916115], [9.822687,48.916094], [9.809048,48.916072], [9.795409,48.916047], [9.781769,48.916022], [9.76813,48.915994], [9.768172,48.906999], [9.754535,48.90697], [9.740898,48.906939], [9.740851,48.915934], [9.727212,48.915902], [9.713573,48.915868], [9.713521,48.924862], [9.699879,48.924827], [9.686237,48.924789], [9.68618,48.933784], [9.672536,48.933745], [9.672477,48.942739], [9.672417,48.951734], [9.672357,48.960729], [9.686009,48.960768], [9.685952,48.969762], [9.672298,48.969723], [9.658644,48.969682], [9.658582,48.978677], [9.65852,48.987671], [9.644861,48.987629], [9.644796,48.996623], [9.644731,49.005618], [9.658395,49.00566], [9.658333,49.014655], [9.658271,49.023649], [9.67194,49.02369], [9.685609,49.023729], [9.699278,49.023767], [9.699223,49.032761], [9.685552,49.032724], [9.685494,49.041718], [9.685437,49.050713], [9.68538,49.059707], [9.685322,49.068701], [9.699004,49.068739], [9.698949,49.077733], [9.698894,49.086727], [9.712581,49.086763], [9.712528,49.095757], [9.726217,49.095792], [9.726267,49.086797], [9.739954,49.08683], [9.75364,49.086861], [9.767327,49.08689], [9.781013,49.086918], [9.781053,49.077924], [9.781093,49.068929], [9.781133,49.059935], [9.781173,49.050941], [9.767496,49.050913], [9.75382,49.050884], [9.753865,49.041889], [9.740191,49.041859], [9.726517,49.041826], [9.726566,49.032832], [9.712895,49.032797], [9.712947,49.023803], [9.712999,49.014808], [9.713052,49.005814], [9.726716,49.005848], [9.726765,48.996854], [9.726815,48.987859], [9.726865,48.978865], [9.726914,48.96987], [9.726964,48.960875], [9.740616,48.960908], [9.754267,48.960939], [9.754312,48.951944], [9.767961,48.951973], [9.781611,48.952001], [9.79526,48.952026], [9.808909,48.952051], [9.808874,48.961045], [9.822526,48.961068], [9.836178,48.961089], [9.836148,48.970083], [9.836118,48.979078], [9.822462,48.979057], [9.822429,48.988052], [9.822397,48.997046], [9.822365,49.006041], [9.836029,49.006062], [9.835999,49.015056], [9.835969,49.024051], [9.835939,49.033045], [9.822268,49.033024], [9.822235,49.042019], [9.808561,49.041996], [9.794887,49.041972], [9.79485,49.050966], [9.794812,49.059961], [9.808491,49.059985], [9.808456,49.068979], [9.822138,49.069002], [9.83582,49.069023], [9.849501,49.069042], [9.863183,49.06906], [9.876865,49.069075], [9.890546,49.06909], [9.890566,49.060095], [9.904246,49.060108], [9.904263,49.051113], [9.90428,49.042119], [9.904298,49.033125], [9.904315,49.02413], [9.904333,49.015136], [9.90435,49.006141], [9.904368,48.997146], [9.904385,48.988152]]]}},{"type":"Feature","properties":{"gitter_id":"Test_Land_Süden1_0"},"geometry":{"type":"Polygon", "coordinates":[[[9.836178,48.961089], [9.822526,48.961068], [9.808874,48.961045], [9.808909,48.952051], [9.79526,48.952026], [9.781611,48.952001], [9.767961,48.951973], [9.754312,48.951944], [9.754267,48.960939], [9.740616,48.960908], [9.726964,48.960875], [9.726914,48.96987], [9.726865,48.978865], [9.726815,48.987859], [9.726765,48.996854], [9.726716,49.005848], [9.713052,49.005814], [9.712999,49.014808], [9.712947,49.023803], [9.712895,49.032797], [9.726566,49.032832], [9.726517,49.041826], [9.740191,49.041859], [9.753865,49.041889], [9.75382,49.050884], [9.767496,49.050913], [9.781173,49.050941], [9.79485,49.050966], [9.794887,49.041972], [9.808561,49.041996], [9.822235,49.042019], [9.822268,49.033024], [9.835939,49.033045], [9.835969,49.024051], [9.835999,49.015056], [9.836029,49.006062], [9.822365,49.006041], [9.822397,48.997046], [9.822429,48.988052], [9.822462,48.979057], [9.836118,48.979078], [9.836148,48.970083], [9.836178,48.961089]]]}}]}