{"type":"FeatureCollection","features":[{"type":"Feature","properties":{"gitter_id":"Test_Erfurt1_1"},"geometry":{"type":"Polygon", "coordinates":[[[11.068168,50.988403], [11.067961,50.979415], [11.053723,50.979545], [11.053519,50.970557], [11.053316,50.961569], [11.053112,50.952581], [11.038882,50.952709], [11.038681,50.943721], [11.024455,50.943848], [11.024256,50.93486], [11.010032,50.934985], [10.995808,50.935108], [10.981584,50.93523], [10.96736,50.935349], [10.967547,50.944338], [10.95332,50.944456], [10.953504,50.953444], [10.939274,50.95356], [10.939456,50.962548], [10.925223,50.962663], [10.925402,50.971651], [10.939638,50.971537], [10.939819,50.980525], [10.954058,50.980409], [10.954242,50.989397], [10.954427,50.998385], [10.954612,51.007373], [10.954797,51.016361], [10.954982,51.02535], [10.94073,51.025466], [10.940913,51.034454], [10.926658,51.034569], [10.926838,51.043557], [10.927018,51.052545], [10.941278,51.05243], [10.955538,51.052314], [10.955353,51.043326], [10.96961,51.043208], [10.983868,51.043087], [10.983677,51.034099], [10.997932,51.033978], [10.998125,51.042966], [11.012382,51.042842], [11.02664,51.042717], [11.026441,51.033729], [11.026241,51.024741], [11.026043,51.015753], [11.025844,51.006765], [11.04009,51.006638], [11.054336,51.006509], [11.054132,50.997521], [11.053927,50.988533], [11.068168,50.988403]], [[11.039687,50.988662], [11.025446,50.988789], [11.025645,50.997777], [11.011402,50.997902], [11.011598,51.00689], [10.997351,51.007013], [10.983105,51.007135], [10.982915,50.998147], [10.982724,50.989159], [10.982534,50.980171], [10.968296,50.980291], [10.968108,50.971302], [10.967921,50.962314], [10.982154,50.962194], [10.981964,50.953206], [10.996193,50.953085], [11.010423,50.952961], [11.024653,50.952836], [11.024851,50.961824], [11.025049,50.970812], [11.039284,50.970686], [11.039486,50.979674], [11.039687,50.988662]]]}},{"type":"Feature","properties":{"gitter_id":"Test_Erfurt1_0"},"geometry":{"type":"Polygon", "coordinates":[[[11.039687,50.988662], [11.039486,50.979674], [11.039284,50.970686], [11.025049,50.970812], [11.024851,50.961824], [11.024653,50.952836], [11.010423,50.952961], [10.996193,50.953085], [10.981964,50.953206], [10.982154,50.962194], [10.967921,50.962314], [10.968108,50.971302], [10.968296,50.980291], [10.982534,50.980171], [10.982724,50.989159], [10.982915,50.998147], [10.983105,51.007135], [10.997351,51.007013], [11.011598,51.00689], [11.011402,50.997902], [11.025645,50.997777], [11.025446,50.988789], [11.039687,50.988662]]]}}]}