{"type":"FeatureCollection","features":[{"type":"Feature","properties":{"gitter_id":"Kuipers, Philipp1_1"},"geometry":{"type":"Polygon", "coordinates":[[[7.409868,53.464174], [7.394821,53.463852], [7.379775,53.463529], [7.380325,53.454549], [7.380874,53.44557], [7.365834,53.445245], [7.366387,53.436265], [7.35135,53.435938], [7.336314,53.435609], [7.336872,53.42663], [7.321839,53.426299], [7.306806,53.425967], [7.306241,53.434946], [7.305676,53.443925], [7.290637,53.44359], [7.275598,53.443253], [7.27617,53.434275], [7.261134,53.433936], [7.26056,53.442915], [7.245521,53.442575], [7.244943,53.451553], [7.244365,53.460532], [7.229321,53.46019], [7.229902,53.451211], [7.214861,53.450867], [7.214276,53.459846], [7.213691,53.468824], [7.198644,53.468478], [7.183597,53.46813], [7.168551,53.46778], [7.167956,53.476758], [7.167361,53.485737], [7.166766,53.494715], [7.15171,53.494363], [7.136654,53.494009], [7.121599,53.493653], [7.106543,53.493296], [7.105935,53.502274], [7.105327,53.511251], [7.104718,53.520229], [7.119782,53.520587], [7.119176,53.529565], [7.134244,53.529921], [7.133641,53.538899], [7.148713,53.539253], [7.163784,53.539605], [7.163187,53.548584], [7.16259,53.557562], [7.177668,53.557912], [7.192747,53.558261], [7.192155,53.567239], [7.191563,53.576218], [7.206648,53.576565], [7.221734,53.57691], [7.221148,53.585888], [7.220562,53.594867], [7.235654,53.59521], [7.250746,53.595552], [7.251326,53.586573], [7.266415,53.586913], [7.266991,53.577934], [7.282077,53.578272], [7.281504,53.587251], [7.296594,53.587587], [7.297164,53.578608], [7.31225,53.578942], [7.327337,53.579274], [7.342424,53.579604], [7.342984,53.570625], [7.343544,53.561646], [7.344103,53.552667], [7.344662,53.543688], [7.359737,53.544016], [7.374812,53.544342], [7.375364,53.535363], [7.375917,53.526384], [7.390985,53.526708], [7.391534,53.517729], [7.392083,53.508749], [7.392631,53.49977], [7.393179,53.49079], [7.408235,53.491113], [7.40878,53.482133], [7.409324,53.473154], [7.409868,53.464174]], [[7.334076,53.471526], [7.333516,53.480505], [7.332956,53.489484], [7.332395,53.498463], [7.331834,53.507442], [7.331273,53.516421], [7.316209,53.516089], [7.315644,53.525068], [7.315079,53.534047], [7.300008,53.533714], [7.284938,53.533378], [7.284366,53.542357], [7.269293,53.54202], [7.254219,53.54168], [7.254797,53.532702], [7.255375,53.523723], [7.255952,53.514744], [7.240889,53.514404], [7.241469,53.505425], [7.256529,53.505766], [7.257106,53.496787], [7.272163,53.497126], [7.272736,53.488147], [7.273309,53.479169], [7.288361,53.479505], [7.303412,53.47984], [7.303979,53.470861], [7.319027,53.471194], [7.334076,53.471526]]]}},{"type":"Feature","properties":{"gitter_id":"Kuipers, Philipp1_0"},"geometry":{"type":"Polygon", "coordinates":[[[7.334076,53.471526], [7.319027,53.471194], [7.303979,53.470861], [7.303412,53.47984], [7.288361,53.479505], [7.273309,53.479169], [7.272736,53.488147], [7.272163,53.497126], [7.257106,53.496787], [7.256529,53.505766], [7.241469,53.505425], [7.240889,53.514404], [7.255952,53.514744], [7.255375,53.523723], [7.254797,53.532702], [7.254219,53.54168], [7.269293,53.54202], [7.284366,53.542357], [7.284938,53.533378], [7.300008,53.533714], [7.315079,53.534047], [7.315644,53.525068], [7.316209,53.516089], [7.331273,53.516421], [7.331834,53.507442], [7.332395,53.498463], [7.332956,53.489484], [7.333516,53.480505], [7.334076,53.471526]]]}}]}