{"type":"FeatureCollection","features":[{"type":"Feature","properties":{"gitter_id":"Kruse, Manfred1_1"},"geometry":{"type":"Polygon", "coordinates":[[[7.402774,53.580907], [7.387687,53.580584], [7.388237,53.571605], [7.373152,53.57128], [7.358068,53.570954], [7.358625,53.561974], [7.359181,53.552995], [7.344103,53.552667], [7.344662,53.543688], [7.345221,53.534709], [7.33015,53.534379], [7.330712,53.5254], [7.315644,53.525068], [7.316209,53.516089], [7.301144,53.515756], [7.28608,53.515421], [7.285509,53.524399], [7.284938,53.533378], [7.269867,53.533041], [7.254797,53.532702], [7.254219,53.54168], [7.239146,53.541339], [7.238565,53.550318], [7.223489,53.549975], [7.222904,53.558953], [7.222319,53.567931], [7.207237,53.567586], [7.206648,53.576565], [7.20606,53.585543], [7.20547,53.594521], [7.204881,53.6035], [7.189786,53.603152], [7.174692,53.602803], [7.174096,53.611781], [7.173499,53.620759], [7.1886,53.621109], [7.203701,53.621456], [7.218802,53.621802], [7.233904,53.622146], [7.249005,53.622488], [7.249586,53.613509], [7.234487,53.613167], [7.235071,53.604189], [7.235654,53.59521], [7.250746,53.595552], [7.265838,53.595892], [7.266415,53.586913], [7.266991,53.577934], [7.267567,53.568956], [7.268142,53.559977], [7.283222,53.560315], [7.298302,53.56065], [7.313383,53.560984], [7.312817,53.569963], [7.31225,53.578942], [7.311683,53.587921], [7.326773,53.588253], [7.341864,53.588583], [7.341303,53.597562], [7.340742,53.606542], [7.340181,53.615521], [7.325081,53.61519], [7.309982,53.614858], [7.309414,53.623836], [7.308846,53.632815], [7.29374,53.632481], [7.294311,53.623502], [7.279209,53.623166], [7.264107,53.622828], [7.263529,53.631806], [7.262952,53.640785], [7.262373,53.649764], [7.261795,53.658742], [7.27691,53.659081], [7.276334,53.668059], [7.291452,53.668396], [7.30657,53.668731], [7.321689,53.669064], [7.322255,53.660085], [7.337371,53.660416], [7.352487,53.660745], [7.367603,53.661072], [7.382719,53.661398], [7.383272,53.652418], [7.383825,53.643439], [7.368715,53.643114], [7.369271,53.634135], [7.354164,53.633808], [7.354723,53.624828], [7.369826,53.625155], [7.38493,53.62548], [7.385482,53.616501], [7.400582,53.616824], [7.401131,53.607845], [7.401679,53.598865], [7.402227,53.589886], [7.402774,53.580907]]]}},{"type":"Feature","properties":{"gitter_id":"Kruse, Manfred1_0"},"geometry":{"type":"Polygon", "coordinates":[[[7.341864,53.588583], [7.326773,53.588253], [7.311683,53.587921], [7.31225,53.578942], [7.312817,53.569963], [7.313383,53.560984], [7.298302,53.56065], [7.283222,53.560315], [7.268142,53.559977], [7.267567,53.568956], [7.266991,53.577934], [7.266415,53.586913], [7.265838,53.595892], [7.250746,53.595552], [7.235654,53.59521], [7.235071,53.604189], [7.234487,53.613167], [7.249586,53.613509], [7.264684,53.613849], [7.264107,53.622828], [7.279209,53.623166], [7.294311,53.623502], [7.29374,53.632481], [7.308846,53.632815], [7.309414,53.623836], [7.309982,53.614858], [7.325081,53.61519], [7.340181,53.615521], [7.340742,53.606542], [7.341303,53.597562], [7.341864,53.588583]]]}}]}