{"type":"FeatureCollection","features":[{"type":"Feature","properties":{"gitter_id":"Czech1_1"},"geometry":{"type":"Polygon", "coordinates":[[[12.225454,48.957049], [12.22505,48.948059], [12.211406,48.948329], [12.211005,48.939339], [12.210603,48.930349], [12.196965,48.930618], [12.183326,48.930886], [12.169688,48.931151], [12.169294,48.922161], [12.155657,48.922425], [12.156049,48.931415], [12.15644,48.940406], [12.142799,48.940668], [12.143188,48.949659], [12.129544,48.949919], [12.1159,48.950179], [12.102256,48.950436], [12.102638,48.959427], [12.10302,48.968417], [12.08937,48.968673], [12.08975,48.977664], [12.076098,48.977918], [12.076476,48.986908], [12.076854,48.995899], [12.077231,49.004889], [12.077609,49.01388], [12.077988,49.02287], [12.091652,49.022616], [12.105316,49.022359], [12.118981,49.022101], [12.119366,49.031092], [12.133033,49.030832], [12.133421,49.039822], [12.14709,49.039561], [12.146699,49.030571], [12.160365,49.030308], [12.159972,49.021318], [12.173636,49.021053], [12.17324,49.012063], [12.186901,49.011797], [12.200562,49.011529], [12.200162,49.002539], [12.199761,48.993549], [12.213417,48.99328], [12.213015,48.98429], [12.212612,48.9753], [12.21221,48.96631], [12.211808,48.957319], [12.225454,48.957049]], [[12.172845,49.003073], [12.159186,49.003337], [12.159579,49.012328], [12.145918,49.01259], [12.132256,49.012852], [12.118595,49.013111], [12.118209,49.004121], [12.117824,48.995131], [12.117439,48.98614], [12.117054,48.97715], [12.130705,48.976891], [12.130318,48.9679], [12.143967,48.967639], [12.157616,48.967377], [12.157224,48.958386], [12.17087,48.958122], [12.171265,48.967112], [12.171659,48.976103], [12.172054,48.985093], [12.172449,48.994083], [12.172845,49.003073]]]}},{"type":"Feature","properties":{"gitter_id":"Czech1_0"},"geometry":{"type":"Polygon", "coordinates":[[[12.172845,49.003073], [12.172449,48.994083], [12.172054,48.985093], [12.171659,48.976103], [12.171265,48.967112], [12.17087,48.958122], [12.157224,48.958386], [12.157616,48.967377], [12.143967,48.967639], [12.130318,48.9679], [12.130705,48.976891], [12.117054,48.97715], [12.117439,48.98614], [12.117824,48.995131], [12.118209,49.004121], [12.118595,49.013111], [12.132256,49.012852], [12.145918,49.01259], [12.159579,49.012328], [12.159186,49.003337], [12.172845,49.003073]]]}}]}