{"type":"FeatureCollection","features":[{"type":"Feature","properties":{"gitter_id":"Avar, Bilal1_1"},"geometry":{"type":"MultiPolygon", "coordinates":[[[[10.984795,50.413755], [10.970728,50.413875], [10.970913,50.422865], [10.956843,50.422983], [10.957025,50.431972], [10.942953,50.432089], [10.92888,50.432204], [10.929057,50.441193], [10.929234,50.450183], [10.915156,50.450296], [10.901078,50.450407], [10.887,50.450517], [10.886831,50.441527], [10.872755,50.441635], [10.872589,50.432646], [10.872423,50.423656], [10.858353,50.423762], [10.85819,50.414772], [10.844122,50.414877], [10.843962,50.405887], [10.858027,50.405783], [10.872092,50.405677], [10.886156,50.405569], [10.885988,50.396579], [10.90005,50.39647], [10.899879,50.38748], [10.899708,50.37849], [10.899537,50.3695], [10.913591,50.369389], [10.927645,50.369276], [10.927821,50.378266], [10.941878,50.378151], [10.942057,50.387141], [10.956116,50.387025], [10.956297,50.396014], [10.956479,50.405004], [10.970544,50.404886], [10.984608,50.404766], [10.984795,50.413755]]], [[[11.012736,50.404521], [11.012544,50.395531], [11.012352,50.386542], [10.998293,50.386665], [10.998103,50.377676], [10.984047,50.377797], [10.98386,50.368808], [10.983673,50.359818], [10.969622,50.359938], [10.969438,50.350948], [10.969254,50.341958], [10.955209,50.342076], [10.95539,50.351066], [10.941341,50.351182], [10.927293,50.351297], [10.913244,50.35141], [10.899196,50.351521], [10.885147,50.35163], [10.884979,50.342641], [10.870933,50.342748], [10.871098,50.351738], [10.857049,50.351844], [10.843001,50.351948], [10.828952,50.352051], [10.829109,50.361041], [10.815057,50.361142], [10.815212,50.370131], [10.815367,50.379121], [10.815522,50.388111], [10.815677,50.397101], [10.801615,50.3972], [10.801767,50.40619], [10.787702,50.406287], [10.787852,50.415277], [10.788002,50.424267], [10.802072,50.424169], [10.816142,50.42407], [10.816298,50.43306], [10.816453,50.44205], [10.816608,50.451039], [10.816764,50.460029], [10.830845,50.459928], [10.831003,50.468918], [10.845087,50.468815], [10.845248,50.477804], [10.859334,50.4777], [10.87342,50.477593], [10.887507,50.477485], [10.887338,50.468496], [10.901421,50.468386], [10.901593,50.477376], [10.901765,50.486365], [10.901937,50.495355], [10.916028,50.495243], [10.930119,50.49513], [10.929942,50.48614], [10.929765,50.477151], [10.943851,50.477036], [10.943671,50.468047], [10.957754,50.46793], [10.957572,50.458941], [10.971652,50.458822], [10.985733,50.458702], [10.985545,50.449713], [10.985357,50.440723], [10.98517,50.431734], [10.984982,50.422745], [10.984795,50.413755], [10.998862,50.413633], [10.998672,50.404644], [11.012736,50.404521]]]]}},{"type":"Feature","properties":{"gitter_id":"Avar, Bilal1_0"},"geometry":{"type":"Polygon", "coordinates":[[[10.984795,50.413755], [10.984608,50.404766], [10.970544,50.404886], [10.956479,50.405004], [10.956297,50.396014], [10.956116,50.387025], [10.942057,50.387141], [10.941878,50.378151], [10.927821,50.378266], [10.927645,50.369276], [10.913591,50.369389], [10.899537,50.3695], [10.899708,50.37849], [10.899879,50.38748], [10.90005,50.39647], [10.885988,50.396579], [10.886156,50.405569], [10.872092,50.405677], [10.858027,50.405783], [10.843962,50.405887], [10.844122,50.414877], [10.85819,50.414772], [10.858353,50.423762], [10.872423,50.423656], [10.872589,50.432646], [10.872755,50.441635], [10.886831,50.441527], [10.887,50.450517], [10.901078,50.450407], [10.915156,50.450296], [10.929234,50.450183], [10.929057,50.441193], [10.92888,50.432204], [10.942953,50.432089], [10.957025,50.431972], [10.956843,50.422983], [10.970913,50.422865], [10.970728,50.413875], [10.984795,50.413755]]]}}]}