{"type":"FeatureCollection","features":[{"type":"Feature","properties":{"gitter_id":"Czech, Sebastian 1_1"},"geometry":{"type":"Polygon", "coordinates":[[[12.37814,49.007895], [12.377708,48.998905], [12.377275,48.989916], [12.363621,48.990206], [12.349967,48.990493], [12.336313,48.99078], [12.322658,48.991064], [12.309004,48.991347], [12.295349,48.991628], [12.294931,48.982638], [12.281279,48.982918], [12.280864,48.973928], [12.267214,48.974206], [12.253564,48.974482], [12.253154,48.965492], [12.239506,48.965766], [12.225858,48.966039], [12.21221,48.96631], [12.211808,48.957319], [12.225454,48.957049], [12.22505,48.948059], [12.211406,48.948329], [12.211005,48.939339], [12.210603,48.930349], [12.196965,48.930618], [12.183326,48.930886], [12.169688,48.931151], [12.169294,48.922161], [12.155657,48.922425], [12.156049,48.931415], [12.15644,48.940406], [12.142799,48.940668], [12.143188,48.949659], [12.129544,48.949919], [12.1159,48.950179], [12.102256,48.950436], [12.088611,48.950692], [12.088991,48.959682], [12.075344,48.959937], [12.061696,48.960189], [12.062071,48.96918], [12.048421,48.969431], [12.048794,48.978422], [12.049166,48.987412], [12.035512,48.987662], [12.021857,48.987909], [12.008202,48.988155], [11.994546,48.9884], [11.994909,48.997391], [11.995272,49.006381], [11.981612,49.006624], [11.981973,49.015615], [11.995635,49.015372], [12.009298,49.015128], [12.022961,49.014881], [12.036623,49.014633], [12.036252,49.005643], [12.049912,49.005393], [12.050285,49.014384], [12.050659,49.023374], [12.064323,49.023123], [12.077988,49.02287], [12.091652,49.022616], [12.105316,49.022359], [12.118981,49.022101], [12.119366,49.031092], [12.133033,49.030832], [12.133421,49.039822], [12.14709,49.039561], [12.146699,49.030571], [12.146308,49.021581], [12.159972,49.021318], [12.173636,49.021053], [12.17324,49.012063], [12.186901,49.011797], [12.187299,49.020787], [12.200963,49.020519], [12.200562,49.011529], [12.214223,49.011259], [12.227883,49.010988], [12.228289,49.019978], [12.241952,49.019705], [12.241544,49.010715], [12.255204,49.010441], [12.254794,49.001451], [12.268451,49.001175], [12.282109,49.000897], [12.295766,49.000617], [12.309424,49.000336], [12.309844,49.009326], [12.323504,49.009043], [12.337163,49.008758], [12.350822,49.008472], [12.364481,49.008184], [12.37814,49.007895]], [[12.200162,49.002539], [12.186503,49.002807], [12.172845,49.003073], [12.159186,49.003337], [12.159579,49.012328], [12.145918,49.01259], [12.132256,49.012852], [12.118595,49.013111], [12.118209,49.004121], [12.117824,48.995131], [12.104167,48.995388], [12.09051,48.995644], [12.09013,48.986654], [12.103785,48.986398], [12.117439,48.98614], [12.117054,48.97715], [12.130705,48.976891], [12.130318,48.9679], [12.143967,48.967639], [12.157616,48.967377], [12.157224,48.958386], [12.17087,48.958122], [12.171265,48.967112], [12.171659,48.976103], [12.172054,48.985093], [12.185708,48.984827], [12.186105,48.993817], [12.199761,48.993549], [12.200162,49.002539]]]}},{"type":"Feature","properties":{"gitter_id":"Czech, Sebastian 1_0"},"geometry":{"type":"Polygon", "coordinates":[[[12.200162,49.002539], [12.199761,48.993549], [12.186105,48.993817], [12.185708,48.984827], [12.172054,48.985093], [12.171659,48.976103], [12.171265,48.967112], [12.17087,48.958122], [12.157224,48.958386], [12.157616,48.967377], [12.143967,48.967639], [12.130318,48.9679], [12.130705,48.976891], [12.117054,48.97715], [12.117439,48.98614], [12.103785,48.986398], [12.09013,48.986654], [12.09051,48.995644], [12.104167,48.995388], [12.117824,48.995131], [12.118209,49.004121], [12.118595,49.013111], [12.132256,49.012852], [12.145918,49.01259], [12.159579,49.012328], [12.159186,49.003337], [12.172845,49.003073], [12.186503,49.002807], [12.200162,49.002539]]]}}]}