{"type":"FeatureCollection","features":[{"type":"Feature","properties":{"gitter_id":"Test_Süden1_1"},"geometry":{"type":"Polygon", "coordinates":[[[9.890606,49.042107], [9.876932,49.042092], [9.876954,49.033098], [9.876977,49.024103], [9.876999,49.015109], [9.863333,49.015093], [9.863357,49.006099], [9.849693,49.006081], [9.849721,48.997086], [9.836059,48.997067], [9.836089,48.988073], [9.836118,48.979078], [9.849775,48.979097], [9.849803,48.970103], [9.863457,48.97012], [9.863482,48.961125], [9.863506,48.952131], [9.849857,48.952113], [9.836208,48.952094], [9.822558,48.952073], [9.822591,48.943078], [9.822623,48.934084], [9.808979,48.934061], [9.809013,48.925066], [9.795371,48.925042], [9.78173,48.925016], [9.78169,48.934011], [9.768046,48.933984], [9.768088,48.924989], [9.754446,48.92496], [9.740804,48.924929], [9.740757,48.933924], [9.74071,48.942918], [9.727063,48.942886], [9.727014,48.951881], [9.726964,48.960875], [9.726914,48.96987], [9.71326,48.969836], [9.713208,48.97883], [9.699552,48.978795], [9.699497,48.987789], [9.713156,48.987825], [9.713104,48.996819], [9.726765,48.996854], [9.726716,49.005848], [9.726666,49.014843], [9.712999,49.014808], [9.712947,49.023803], [9.712895,49.032797], [9.712843,49.041792], [9.726517,49.041826], [9.726467,49.05082], [9.726417,49.059815], [9.740096,49.059847], [9.753775,49.059878], [9.75382,49.050884], [9.767496,49.050913], [9.781173,49.050941], [9.79485,49.050966], [9.794887,49.041972], [9.808561,49.041996], [9.808526,49.050991], [9.822203,49.051013], [9.822171,49.060008], [9.83585,49.060028], [9.849529,49.060048], [9.863208,49.060065], [9.863233,49.051071], [9.87691,49.051087], [9.890586,49.051101], [9.890606,49.042107]], [[9.822332,49.015035], [9.8223,49.02403], [9.808631,49.024007], [9.808596,49.033002], [9.794924,49.032978], [9.794962,49.023983], [9.781293,49.023957], [9.781253,49.032952], [9.767581,49.032924], [9.75391,49.032895], [9.753954,49.023901], [9.740285,49.02387], [9.740333,49.014875], [9.74038,49.005881], [9.740427,48.996886], [9.754089,48.996917], [9.754133,48.987923], [9.754178,48.978928], [9.767835,48.978957], [9.767877,48.969962], [9.781531,48.96999], [9.781571,48.960995], [9.795223,48.961021], [9.795185,48.970016], [9.80884,48.97004], [9.808805,48.979035], [9.80877,48.988029], [9.795111,48.988005], [9.795074,48.997], [9.795036,49.005994], [9.808701,49.006018], [9.808666,49.015013], [9.822332,49.015035]]]}},{"type":"Feature","properties":{"gitter_id":"Test_Süden1_0"},"geometry":{"type":"Polygon", "coordinates":[[[9.822332,49.015035], [9.808666,49.015013], [9.808701,49.006018], [9.795036,49.005994], [9.795074,48.997], [9.795111,48.988005], [9.80877,48.988029], [9.808805,48.979035], [9.80884,48.97004], [9.795185,48.970016], [9.795223,48.961021], [9.781571,48.960995], [9.781531,48.96999], [9.767877,48.969962], [9.767835,48.978957], [9.754178,48.978928], [9.754133,48.987923], [9.754089,48.996917], [9.740427,48.996886], [9.74038,49.005881], [9.740333,49.014875], [9.740285,49.02387], [9.753954,49.023901], [9.75391,49.032895], [9.767581,49.032924], [9.781253,49.032952], [9.781293,49.023957], [9.794962,49.023983], [9.794924,49.032978], [9.808596,49.033002], [9.808631,49.024007], [9.8223,49.02403], [9.822332,49.015035]]]}}]}